NORAD_CAT_ID,OBJECT_NAME,OBJECT_TYPE,EPOCH,MEAN_MOTION,ECCENTRICITY,INCLINATION,RA_OF_ASC_NODE,ARG_OF_PERICENTER,MEAN_ANOMALY,BSTAR,MEAN_MOTION_DOT,MEAN_MOTION_DDOT,TLE_LINE0,TLE_LINE1,TLE_LINE2,SEMIMAJOR_AXIS,PERIOD,APOGEE,PERIGEE,DECAYED
51123.0,STARLINK-3392,PAYLOAD,2023-07-01 01:06:12,15.08847489,9.66e-05,53.2193,20.3797,92.1047,268.0056,7.211e-05,8.6e-06,0.0,0 STARLINK-3392,1 51123U 22005V   23182.04597840  .00000860  00000-0  72110-4 0  9993,2 51123  53.2193  20.3797 0000966  92.1047 268.0056 15.08847489 81616,6917.857,95.437,540.391,539.054,0.0
51123.0,STARLINK-3392,PAYLOAD,2023-07-01 18:35:28,15.08834336,9.71e-05,53.2193,17.1099,81.1478,278.9624,6.2936e-06,-1.88e-06,0.0,0 STARLINK-3392,1 51123U 22005V   23182.77463123 -.00000188  00000-0  62936-5 0  9999,2 51123  53.2193  17.1099 0000971  81.1478 278.9624 15.08834336 81727,6917.898,95.438,540.434,539.091,0.0
51123.0,STARLINK-3392,PAYLOAD,2023-07-02 00:57:00,15.08842245,0.0001006,53.2186,15.9186,97.6519,262.4587,5.4445e-05,5.79e-06,0.0,0 STARLINK-3392,1 51123U 22005V   23183.03958440  .00000579  00000-0  54445-4 0  9998,2 51123  53.2186  15.9186 0001006  97.6519 262.4587 15.08842245 81768,6917.874,95.437,540.434,539.043,0.0
51123.0,STARLINK-3392,PAYLOAD,2023-07-02 21:37:02,15.08832708,8.24e-05,53.2183,12.0526,89.6508,270.4578,-2.3971e-05,-6.69e-06,0.0,0 STARLINK-3392,1 51123U 22005V   23183.90072078 -.00000669  00000-0 -23971-4 0  9990,2 51123  53.2183  12.0526 0000824  89.6508 270.4578 15.08832708 81893,6917.903,95.438,540.338,539.198,0.0
51123.0,STARLINK-3392,PAYLOAD,2023-07-03 16:41:39,15.08843865,7.6e-05,53.2183,8.4836,92.2002,267.9078,0.00011928,1.611e-05,0.0,0 STARLINK-3392,1 51123U 22005V   23184.69559339  .00001611  00000-0  11928-3 0  9991,2 51123  53.2183   8.4836 0000760  92.2002 267.9078 15.08843865 82011,6917.869,95.437,540.259,539.208,0.0
51123.0,STARLINK-3392,PAYLOAD,2023-07-04 16:32:26,15.08837009,7.42e-05,53.2189,4.0251,85.0311,275.0766,0.00034864,5.265e-05,0.0,0 STARLINK-3392,1 51123U 22005V   23185.68919315  .00005265  00000-0  34864-3 0  9998,2 51123  53.2189   4.0251 0000742  85.0311 275.0766 15.08837009 82166,6917.89,95.438,540.268,539.241,0.0
51123.0,STARLINK-3392,PAYLOAD,2023-07-05 17:58:36,15.08846209,8.26e-05,53.218,359.2662,86.5013,273.6074,2.5951e-05,1.25e-06,0.0,0 STARLINK-3392,1 51123U 22005V   23186.74903153  .00000125  00000-0  25951-4 0  9997,2 51123  53.2180 359.2662 0000826  86.5013 273.6074 15.08846209 82322,6917.861,95.437,540.298,539.155,0.0
51123.0,STARLINK-3392,PAYLOAD,2023-07-06 21:00:09,15.08851778,7.9e-05,53.2177,354.2105,91.5553,268.5529,0.00011109,1.481e-05,0.0,0 STARLINK-3392,1 51123U 22005V   23187.87510609  .00001481  00000-0  11109-3 0  9997,2 51123  53.2177 354.2105 0000790  91.5553 268.5529 15.08851778 82493,6917.844,95.437,540.256,539.163,0.0
51123.0,STARLINK-3392,PAYLOAD,2023-07-07 17:40:10,15.08845449,8.4e-05,53.2172,350.3443,94.9312,265.1776,0.00017757,2.54e-05,0.0,0 STARLINK-3392,1 51123U 22005V   23188.73622889  .00002540  00000-0  17757-3 0  9999,2 51123  53.2172 350.3443 0000840  94.9312 265.1776 15.08845449 82626,6917.864,95.437,540.31,539.148,0.0
51123.0,STARLINK-3392,PAYLOAD,2023-07-09 03:03:16,15.08835567,0.000114,53.2178,344.0994,84.1766,275.9357,-2.1308e-05,-6.27e-06,0.0,0 STARLINK-3392,1 51123U 22005V   23190.12727354 -.00000627  00000-0 -21308-4 0  9992,2 51123  53.2178 344.0994 0001140  84.1766 275.9357 15.08835567 82838,6917.894,95.438,540.548,538.97,0.0
51123.0,STARLINK-3392,PAYLOAD,2023-07-10 18:47:54,15.08848034,7.8e-05,53.2181,336.6674,98.9343,261.1738,0.00020572,2.989e-05,0.0,0 STARLINK-3392,1 51123U 22005V   23191.78327113  .00002989  00000-0  20572-3 0  9996,2 51123  53.2181 336.6674 0000780  98.9343 261.1738 15.08848034 83088,6917.856,95.437,540.26,539.181,0.0
51123.0,STARLINK-3392,PAYLOAD,2023-07-11 09:06:23,15.08840208,8.27e-05,53.2182,333.9906,93.1802,266.9285,0.00014891,2.083e-05,0.0,0 STARLINK-3392,1 51123U 22005V   23192.37943524  .00002083  00000-0  14891-3 0  9994,2 51123  53.2182 333.9906 0000827  93.1802 266.9285 15.08840208 83171,6917.88,95.438,540.317,539.173,0.0
51123.0,STARLINK-3392,PAYLOAD,2023-07-12 15:18:42,15.08844382,8.07e-05,53.2183,328.3417,74.1453,285.9628,0.00011436,1.533e-05,0.0,0 STARLINK-3392,1 51123U 22005V   23193.63799444  .00001533  00000-0  11436-3 0  9995,2 51123  53.2183 328.3417 0000807  74.1453 285.9628 15.08844382 83366,6917.867,95.437,540.29,539.174,0.0
51123.0,STARLINK-3392,PAYLOAD,2023-07-13 15:09:29,15.08842204,0.000104,53.2178,323.8779,101.327,258.7839,2.8674e-05,1.69e-06,0.0,0 STARLINK-3392,1 51123U 22005V   23194.63159518  .00000169  00000-0  28674-4 0  9995,2 51123  53.2178 323.8779 0001040 101.3270 258.7839 15.08842204 83511,6917.874,95.437,540.458,539.019,0.0
51123.0,STARLINK-3392,PAYLOAD,2023-07-14 16:35:39,15.08863145,7.75e-05,53.218,319.1214,102.4849,257.623,-0.00012722,-2.313e-05,0.0,0 STARLINK-3392,1 51123U 22005V   23195.69142593 -.00002313  00000-0 -12722-3 0  9998,2 51123  53.2180 319.1214 0000775 102.4849 257.6230 15.08863145 83671,6917.81,95.436,540.211,539.139,0.0
51123.0,STARLINK-3392,PAYLOAD,2023-07-15 14:51:04,15.08842496,9.26e-05,53.2181,314.9591,89.9371,270.1727,0.00017055,2.428e-05,0.0,0 STARLINK-3392,1 51123U 22005V   23196.61879883  .00002428  00000-0  17055-3 0  9999,2 51123  53.2181 314.9591 0000926  89.9371 270.1727 15.08842496 83813,6917.873,95.437,540.378,539.097,0.0
51123.0,STARLINK-3392,PAYLOAD,2023-07-16 08:20:19,15.08833101,9.18e-05,53.2177,311.6888,85.4182,274.6915,-8.8628e-05,-1.698e-05,0.0,0 STARLINK-3392,1 51123U 22005V   23197.34744371 -.00001698  00000-0 -88628-4 0  9998,2 51123  53.2177 311.6888 0000918  85.4182 274.6915 15.08833101 83926,6917.901,95.438,540.402,539.131,0.0
51123.0,STARLINK-3392,PAYLOAD,2023-07-17 00:14:10,15.08840361,8.77e-05,53.2173,308.7164,86.0215,274.0877,-6.188e-06,-3.86e-06,0.0,0 STARLINK-3392,1 51123U 22005V   23198.00984083 -.00000386  00000-0 -61880-5 0  9993,2 51123  53.2173 308.7164 0000877  86.0215 274.0877 15.08840361 84023,6917.879,95.438,540.351,539.138,0.0
51123.0,STARLINK-3392,PAYLOAD,2023-07-18 11:12:39,15.08833196,0.0001047,53.2183,302.1765,99.6792,260.4319,1.7396e-05,-1.1e-07,0.0,0 STARLINK-3392,1 51123U 22005V   23199.46712850 -.00000011  00000-0  17396-4 0  9991,2 51123  53.2183 302.1765 0001047  99.6792 260.4319 15.08833196 84241,6917.901,95.438,540.49,539.042,0.0
51123.0,STARLINK-3392,PAYLOAD,2023-07-18 14:23:25,15.08842686,9.48e-05,53.2173,301.5805,91.9973,268.1128,0.00015051,2.109e-05,0.0,0 STARLINK-3392,1 51123U 22005V   23199.59960444  .00002109  00000-0  15051-3 0  9993,2 51123  53.2173 301.5805 0000948  91.9973 268.1128 15.08842686 84262,6917.872,95.437,540.393,539.081,0.0
51123.0,STARLINK-3392,PAYLOAD,2023-07-19 06:17:17,15.08838899,0.0001267,53.2181,298.6098,70.6917,289.4212,6.9776e-05,8.23e-06,0.0,0 STARLINK-3392,1 51123U 22005V   23200.26200990  .00000823  00000-0  69776-4 0  9998,2 51123  53.2181 298.6098 0001267  70.6917 289.4212 15.08838899 84360,6917.884,95.438,540.625,538.872,0.0
51123.0,STARLINK-3392,PAYLOAD,2023-07-20 15:40:22,15.08853539,0.0001404,53.2175,292.3626,63.2535,296.8601,0.00027929,4.161e-05,0.0,0 STARLINK-3392,1 51123U 22005V   23201.65304369  .00004161  00000-0  27929-3 0  9999,2 51123  53.2175 292.3626 0001404  63.2535 296.8601 15.08853539 84573,6917.839,95.437,540.675,538.733,0.0
51123.0,STARLINK-3392,PAYLOAD,2023-07-21 05:58:51,15.08844585,0.0001551,53.2183,289.6776,136.1207,223.9908,-2.0438e-06,-3.21e-06,0.0,0 STARLINK-3392,1 51123U 22005V   23202.24920331 -.00000321  00000-0 -20438-5 0  9994,2 51123  53.2183 289.6776 0001551 136.1207 223.9908 15.08844585 84668,6917.866,95.437,540.804,538.658,0.0
51123.0,STARLINK-3392,PAYLOAD,2023-07-24 05:31:12,15.0883689,0.000125,53.2176,276.3016,99.0345,261.0788,6.418e-05,7.34e-06,0.0,0 STARLINK-3392,1 51123U 22005V   23205.23000932  .00000734  00000-0  64180-4 0  9999,2 51123  53.2176 276.3016 0001250  99.0345 261.0788 15.08836890 84036,6917.89,95.438,540.62,538.89,0.0
51123.0,STARLINK-3392,PAYLOAD,2023-07-25 11:43:32,15.08838833,0.0001169,53.2171,270.6529,95.9897,264.1229,6.3281e-05,7.19e-06,0.0,0 STARLINK-3392,1 51123U 22005V   23206.48857155  .00000719  00000-0  63281-4 0  9998,2 51123  53.2171 270.6529 0001169  95.9897 264.1229 15.08838833 84227,6917.884,95.438,540.558,538.94,0.0
51123.0,STARLINK-3392,PAYLOAD,2023-07-26 21:06:38,15.08845641,0.0001126,53.2162,264.4079,88.3082,271.8039,0.0001245,1.694e-05,0.0,0 STARLINK-3392,1 51123U 22005V   23207.87960745  .00001694  00000-0  12450-3 0  9996,2 51123  53.2162 264.4079 0001126  88.3082 271.8039 15.08845641 84435,6917.863,95.437,540.507,538.949,0.0
51123.0,STARLINK-3392,PAYLOAD,2023-07-27 11:25:06,15.08845447,0.0001228,53.2167,261.732,86.6706,273.4426,0.0001077,1.427e-05,0.0,0 STARLINK-3392,1 51123U 22005V   23208.47576707  .00001427  00000-0  10770-3 0  9991,2 51123  53.2167 261.7320 0001228  86.6706 273.4426 15.08845447 84528,6917.864,95.437,540.578,538.879,0.0
51123.0,STARLINK-3392,PAYLOAD,2023-07-28 08:05:07,15.08835975,0.0001277,53.2169,257.8667,83.5258,276.5879,-3.767e-05,-8.87e-06,0.0,0 STARLINK-3392,1 51123U 22005V   23209.33689799 -.00000887  00000-0 -37670-4 0  9993,2 51123  53.2169 257.8667 0001277  83.5258 276.5879 15.08835975 84657,6917.893,95.438,540.641,538.874,0.0
51123.0,STARLINK-3392,PAYLOAD,2023-07-29 09:31:17,15.08848385,0.0001102,53.2164,253.1095,87.5282,272.5836,-3.7857e-05,-8.9e-06,0.0,0 STARLINK-3392,1 51123U 22005V   23210.39673110 -.00000890  00000-0 -37857-4 0  9992,2 51123  53.2164 253.1095 0001102  87.5282 272.5836 15.08848385 85899,6917.855,95.437,540.482,538.957,0.0
51123.0,STARLINK-3392,PAYLOAD,2023-07-30 03:00:32,15.08837258,0.0001151,53.2162,249.8372,93.6697,266.4427,0.0001038,1.364e-05,0.0,0 STARLINK-3392,1 51123U 22005V   23211.12537379  .00001364  00000-0  10380-3 0  9996,2 51123  53.2162 249.8372 0001151  93.6697 266.4427 15.08837258 86008,6917.889,95.438,540.55,538.958,0.0
